,name,a,e,i,om,w,q,ad,per_y,data_arc,condition_code,n_obs_used,H,neo,pha,diameter,extent,albedo,rot_per,GM,BV,UB,IR,spec_B,spec_T,G,moid,class,n,per,ma
5672,,2.408328789358103,0.2253138768126318,5.021317111911065,224.7158364209988,192.6450362386553,1.865698893188356,2.95095868552785,3.73750573904157,1586.0,2,80,18.5,N,N,,,,,,,,,,,,0.877657,MBA,0.2637123130198337,1365.123971184935,327.6947292694643
5673,,3.155152263829235,0.06272450737303774,0.5309774135752534,22.66217182272418,142.2364746385424,2.957246892393621,3.353057635264848,5.60452339240067,2218.0,4,39,16.9,N,N,,,,,,,,,,,,1.9649,MBA,0.1758626406491577,2047.052169074343,180.7610312563089
5674,,3.204685553924985,0.1699455071614587,9.386873269286692,290.4419069687106,68.87386823096995,2.660063642170204,3.749307465679767,5.73701963479819,4481.0,0,40,16.5,N,N,,,,,,,,,,,,1.67335,OMB,0.1718010998932597,2095.44642161004,160.6023302814092
5675,,2.633391535373558,0.04659096372281385,10.34609515874929,166.1193254339465,52.15639456466189,2.510699285881003,2.756083784866113,4.27347684490511,6259.0,0,170,16.8,N,N,,,,,,,,,,,,1.52017,MBA,0.2306380306102819,1560.887417601593,319.9809008755792
5676,,2.940614450383844,0.2204476781605367,5.948588530410868,89.54306420179452,73.44293998566108,2.292362822431403,3.588866078336284,5.042725555707,8688.0,0,216,16.3,N,N,,,,,,,,,,,,1.30969,MBA,0.1954550713655423,1841.855509221983,124.1373329370271
5677,,3.002040045398935,0.03853401937386455,9.855744359607822,111.5640661440365,19.66308451107132,2.886359376128415,3.117720714669455,5.20155175478897,6372.0,0.0,419,15.3,N,N,,,,,,,,,,,,1.90385,MBA,0.1894869703949612,1899.866778436672,144.3633284075302
5678,,2.311061778586853,0.2192744915620034,5.977492750747314,8.702395058693737,303.8880222011218,1.804304882118841,2.817818675054864,3.51338331779055,8601.0,0,96,18.1,N,N,,,,,,,,,,,,0.79811,MBA,0.2805347991426635,1283.263256822998,144.1154842332397
5679,,1.922429889779912,0.08550818496182218,21.54039509304529,221.057450532707,229.7397891197785,1.758046399188476,2.086813380371348,2.66553241093321,4.0,9,9,18.778,N,N,,,,,,,,,,,,0.803566,IMB,0.3697671351977619,973.585713093355,156.1106843405352
5680,,2.384314723307777,0.1188044224475339,1.798077521579361,45.86553376075349,147.1338291305658,2.101047589672045,2.667581856943509,3.68174387628293,17.0,7,15,18.627,N,N,,,,,,,,,,,,1.10095,MBA,0.2677063686360061,1344.756950812341,295.3112175029776
5681,,2.319990492676677,0.2283002798313475,4.922944768157067,41.49987847417244,254.5238886102427,1.790336013992526,2.849644971360828,3.53376373893786,4113.0,0,83,18.2,N,N,,,,,,,,,,,,0.781624,MBA,0.2789168592419267,1290.707205647054,127.9114108810442
5682,,2.365758678074958,0.1782899581040519,5.597814084056469,110.4434214706592,224.2066632323368,1.943967662476677,2.78754969367324,3.63884758258005,7125.0,0,844,15.8,N,N,1.915,,0.277,,,,,,,,,0.937352,MBA,0.2708622059593708,1329.089079537364,163.8283546213746
5683,,2.591499954130179,0.2794597698384138,3.688624278748118,169.9042448044422,178.4911555158087,1.867279973412699,3.315719934847658,4.17191076476375,8315.0,0,992,15.1,N,N,2.248,,0.383,,,,,,,,,0.859957,MBA,0.2362529639157733,1523.790406829959,20.86159142942404
5684,,2.578337776203586,0.1570085207451345,12.92836368620091,247.3106351610597,187.49027754,2.173516775980561,2.98315877642661,4.14016757543723,1507.0,2.0,21,18.224,N,N,,,,,,,,,,,,1.18874,MBA,0.2380643453214495,1512.196206928447,187.4474144680634
5685,,2.964545503747637,0.1104924937419499,9.576709687902978,298.4845285355246,68.10260661697293,2.636985478227075,3.292105529268198,5.10440803398343,9155.0,0.0,194,15.5,N,N,,,,,,,,,,,,1.6521,MBA,0.1930931612060767,1864.385034412449,89.11527297074397
5686,,2.976780513169698,0.1429757561320509,9.032661029907423,284.730008860757,75.26299100663066,2.551173068460106,3.402387957879291,5.13604030601707,7327.0,0,769,14.7,N,N,4.44,,0.187,3.764,,,,,,,,1.56519,MBA,0.1919039229915813,1875.938721772733,39.12016222285747
5687,,3.087159417608007,0.1517446428614669,10.64639199279387,295.2205167493555,355.6897389051165,2.618699514326666,3.555619320889349,5.42433854652143,6296.0,0.0,400,15.0,N,N,3.632,,0.134,,,,,,,,,1.60195,MBA,0.1817044188732704,1981.239654116951,287.1080137178889
5688,,2.999651279453118,0.07888182680311906,13.29708714728805,81.22970689751486,165.3640674713084,2.763033306757543,3.236269252148694,5.19534456695842,3149.0,0,72,16.4,N,N,,,,,,,,,,,,1.75047,MBA,0.1897133617731509,1897.599603081562,110.998124001597
5689,,1.396662561907461,0.3211300513431387,9.740520062325556,353.1119294761393,50.51081623565473,0.9481522416930784,1.845172882121844,1.65061367969005,13.0,8,22,25.706,Y,N,,,,,,,,,,,,0.0236142,APO,0.5971271748775481,602.8866465067924,333.8106772762452
5690,,2.231506160248042,0.1349439890559826,5.110984671777822,160.9719399976123,64.31942444559421,1.930377817381172,2.532634503114912,3.33353744154279,10459.0,0,395,16.8,N,N,,,,,,,,,,,,0.928209,MBA,0.2956697804214256,1217.574550523503,113.7066722848647
5691,,2.293061933164042,0.2621948305069522,4.217906374604915,232.1453791396811,149.5975675700159,1.691832948256152,2.894290918071933,3.47241704480253,5166.0,0.0,95,19.1,N,N,,,,,,,,,,,,0.696038,MBA,0.2838444434094772,1268.300325614125,9.792066894643222
5692,,2.531249498738395,0.02522978164454418,4.016459493500011,259.8935155672266,344.5223471238856,2.467386626597363,2.595112370879427,4.02726895340672,3452.0,8,14,16.5,N,N,2.626,,0.064,,,,,,,,,1.45505,MBA,0.2447381326578156,1470.959985231805,35.14885466825187
5693,,2.42346795357536,0.2106217836301689,1.529495661839311,143.668923804976,276.9667304953925,1.913032810622762,2.933903096527957,3.77280296003836,4.0,9.0,9,19.129,N,N,,,,,,,,,,,,0.925386,MBA,0.2612450991497141,1378.016281154011,322.9505407307739
5694,,2.204094631996803,0.1048037953365142,3.698499288438073,258.2161140588007,154.0887326176384,1.973097149282701,2.435092114710905,3.2723033544386,7484.0,0,1482,15.0,N,N,,,,,,,,,,,,0.984453,MBA,0.3012026015346774,1195.208800208697,97.62020500535112
5695,,3.135416367944166,0.01001587513640679,7.414242936531607,153.4948347674511,196.1632492867093,3.104012429102191,3.16682030678614,5.55202015499823,4903.0,0,75,16.7,N,N,,,,,,,,,,,,2.09422,MBA,0.1775257034109003,2027.875361613103,262.7606162643207
5696,,3.229679765484682,0.1390956622842381,0.9801188604152886,187.187753680231,243.2073084236547,2.780445319538587,3.678914211430776,5.80426718834442,7580.0,0,665,14.9,N,N,,,,,,,,,,,,1.79483,OMB,0.1698106326577795,2120.008590542798,190.4922923306078
5697,,2.248074560755731,0.2371129179492791,9.219612476005151,104.2886968690006,172.3119621638961,1.715027041887395,2.781122079624066,3.37073234909307,7406.0,0,1098,15.1,N,N,5.006,,0.067,,,,,,,,,0.698524,MBA,0.292407162981288,1231.159990506243,261.5273344953355
5698,,3.159452404129525,0.21325762175266,3.02923315001561,101.8966254014438,246.2613239207149,2.485675098384139,3.833229709874912,5.6159848582245,6260.0,0,114,16.3,N,N,,,,,,,,,,,,1.48018,MBA,0.175503728775929,2051.238469466499,28.93859817398619
5699,,2.679601135609369,0.1337025992171565,12.11659302004532,130.5294562076345,54.07066766002394,2.321331498913152,3.037870772305586,4.3864525120014,5651.0,0,52,17.1,N,N,,,,,,,,,,,,1.3487,MBA,0.2246978123371603,1602.151780008512,268.0962862415158
5700,,2.3977797,0.0672768,4.98149,293.39238,240.21422,2.2364648,2.5590946,3.71297580123203,,2,42,18.3,N,,,,,,,,,,,,,,MBA,0.26545454,1356.1644114,35.01598
5701,,2.586234543672914,0.1529506575942941,3.457850317443611,330.9073344761917,50.80479144146808,2.190668269525063,2.981800817820766,4.15920249091146,7233.0,0,127,17.0,N,N,,,,,,,,,,,,1.1946,MBA,0.2369748252270268,1519.148709805409,85.99745170471338
5702,,2.697141053971301,0.05149541941439417,4.22761779416144,124.80540548161,314.0316739110852,2.558250644177267,2.836031463765334,4.42959164823078,8974.0,0,159,16.8,N,N,,,,,,,,,,,,1.576,MBA,0.2225095136616543,1617.908349516292,230.0253465859734
5703,,1.623324617415425,0.3642224847475406,3.043697757718531,130.5818601161706,182.8503165465846,1.032073291708528,2.214575943122322,2.06831301271259,81.0,6,24,24.2,Y,N,,,,,,,,,,,,0.0172572,AMO,0.4765363256477844,755.4513278932733,104.6595418236966
5704,,2.998060335267627,0.1677834634456764,3.017926436361694,110.9134269214484,172.7933267785574,2.495035388597319,3.501085281937935,5.19121188298617,5432.0,0,158,16.4,N,N,,,,,,,,,,,,1.47801,MBA,0.1898643911256784,1896.0901402607,72.21610715617177
5705,,2.37849721039387,0.2357266485115217,22.57797882988945,202.2755902830868,303.8631991135286,1.817822034493719,2.93917238629402,3.66827741430934,7562.0,0,457,15.9,N,N,,,,,,,,,,,,0.898717,MBA,0.2686891344484453,1339.838325576485,316.9366801361607
5706,,2.406932842805104,0.1872435664981661,1.561064976812686,296.8419196979521,25.85652798037901,1.956250152996706,2.857615532613501,3.73425663815149,10096.0,0,763,15.6,N,N,2.192,,0.146,,,,,,,,,0.94306,MBA,0.2639417637496536,1363.937237084832,55.11876161444753
5707,,3.070455893562753,0.08851339493785097,7.862776199570021,261.8797120065613,323.1390867608569,2.798679418416581,3.342232368708925,5.38037439321201,3940.0,6,9,16.548,N,N,,,,,,,,,,,,1.79348,MBA,0.1831891633063756,1965.181747120686,12.35309261340942
5708,,3.086376941291189,0.166480694815222,6.306916844032618,113.0515856672729,255.6861694127467,2.572554763643352,3.600199118939025,5.42227638504264,4966.0,0,160,15.8,N,N,3.059,,0.09,,,,,,,,,1.57994,MBA,0.1817735234017963,1980.486449636825,194.1013783338347
5709,,2.453644787181048,0.1508558815810702,5.663042955981896,79.33228181186651,64.7804136103586,2.083498039724053,2.823791534638042,3.84348984383473,23741.0,0,1393,14.4,N,N,2.004,,0.764,,,,,,,,,1.10398,MBA,0.2564404547467665,1403.834665460635,170.0915022119102
5710,Cassidyryan,2.459003594041488,0.1367350480997128,5.845329010920317,66.78242438013723,181.1417098146931,2.122771619332859,2.795235568750117,3.85608809861778,9875.0,0,1009,15.0,N,N,,,,,,,,,,,,1.10881,MBA,0.2556026361848046,1408.436178020146,326.7797167995461
